CCSDS_OMM_VERS = 2.0
CREATION_DATE  = 
ORIGINATOR     = 

OBJECT_NAME    = COSMOS 1933
OBJECT_ID      = 1988-020A
CENTER_NAME    = EARTH
REF_FRAME      = TEME
TIME_SYSTEM    = UTC
MEAN_ELEMENT_THEORY = SGP/SGP4

EPOCH          = 2026-03-02T00:16:31.789056
MEAN_MOTION    = 15.17900820
ECCENTRICITY   = .0003259
INCLINATION    = 82.5094
RA_OF_ASC_NODE = 258.5109
ARG_OF_PERICENTER = 211.2749
MEAN_ANOMALY   = 148.8291

EPHEMERIS_TYPE = 0
CLASSIFICATION_TYPE = U
NORAD_CAT_ID   = 18958
ELEMENT_SET_NO = 999
REV_AT_EPOCH   = 4906
BSTAR          = .24263E-3
MEAN_MOTION_DOT = .4948E-4
MEAN_MOTION_DDOT = 0

CCSDS_OMM_VERS = 2.0
CREATION_DATE  = 
ORIGINATOR     = 

OBJECT_NAME    = SL-3 R/B
OBJECT_ID      = 1988-032B
CENTER_NAME    = EARTH
REF_FRAME      = TEME
TIME_SYSTEM    = UTC
MEAN_ELEMENT_THEORY = SGP/SGP4

EPOCH          = 2026-03-02T02:17:20.579712
MEAN_MOTION    = 15.19798672
ECCENTRICITY   = .00241
INCLINATION    = 97.5174
RA_OF_ASC_NODE = 44.3737
ARG_OF_PERICENTER = 260.0326
MEAN_ANOMALY   = 99.8188

EPHEMERIS_TYPE = 0
CLASSIFICATION_TYPE = U
NORAD_CAT_ID   = 19046
ELEMENT_SET_NO = 999
REV_AT_EPOCH   = 5095
BSTAR          = .32576E-3
MEAN_MOTION_DOT = .6959E-4
MEAN_MOTION_DDOT = 0

CCSDS_OMM_VERS = 2.0
CREATION_DATE  = 
ORIGINATOR     = 

OBJECT_NAME    = SL-16 R/B
OBJECT_ID      = 1988-039B
CENTER_NAME    = EARTH
REF_FRAME      = TEME
TIME_SYSTEM    = UTC
MEAN_ELEMENT_THEORY = SGP/SGP4

EPOCH          = 2026-03-02T03:48:53.431200
MEAN_MOTION    = 14.19615192
ECCENTRICITY   = .0022333
INCLINATION    = 71.0128
RA_OF_ASC_NODE = 84.4730
ARG_OF_PERICENTER = 345.4989
MEAN_ANOMALY   = 14.5493

EPHEMERIS_TYPE = 0
CLASSIFICATION_TYPE = U
NORAD_CAT_ID   = 19120
ELEMENT_SET_NO = 999
REV_AT_EPOCH   = 95731
BSTAR          = .92317E-4
MEAN_MOTION_DOT = .147E-5
MEAN_MOTION_DDOT = 0

CCSDS_OMM_VERS = 2.0
CREATION_DATE  = 
ORIGINATOR     = 

OBJECT_NAME    = COSMOS 1953
OBJECT_ID      = 1988-050A
CENTER_NAME    = EARTH
REF_FRAME      = TEME
TIME_SYSTEM    = UTC
MEAN_ELEMENT_THEORY = SGP/SGP4

EPOCH          = 2026-03-02T05:27:56.511360
MEAN_MOTION    = 15.28360478
ECCENTRICITY   = .0012167
INCLINATION    = 82.5115
RA_OF_ASC_NODE = 165.7490
ARG_OF_PERICENTER = 146.7184
MEAN_ANOMALY   = 213.4823

EPHEMERIS_TYPE = 0
CLASSIFICATION_TYPE = U
NORAD_CAT_ID   = 19210
ELEMENT_SET_NO = 999
REV_AT_EPOCH   = 3664
BSTAR          = .38162E-3
MEAN_MOTION_DOT = .10594E-3
MEAN_MOTION_DDOT = 0

CCSDS_OMM_VERS = 2.0
CREATION_DATE  = 
ORIGINATOR     = 

OBJECT_NAME    = SL-8 R/B
OBJECT_ID      = 1988-053B
CENTER_NAME    = EARTH
REF_FRAME      = TEME
TIME_SYSTEM    = UTC
MEAN_ELEMENT_THEORY = SGP/SGP4

EPOCH          = 2026-03-02T03:21:31.634208
MEAN_MOTION    = 14.38910307
ECCENTRICITY   = .0021232
INCLINATION    = 74.0470
RA_OF_ASC_NODE = 126.3827
ARG_OF_PERICENTER = 306.8254
MEAN_ANOMALY   = 73.6207

EPHEMERIS_TYPE = 0
CLASSIFICATION_TYPE = U
NORAD_CAT_ID   = 19257
ELEMENT_SET_NO = 999
REV_AT_EPOCH   = 97551
BSTAR          = .96531E-4
MEAN_MOTION_DOT = .272E-5
MEAN_MOTION_DDOT = 0

CCSDS_OMM_VERS = 2.0
CREATION_DATE  = 
ORIGINATOR     = 

OBJECT_NAME    = COSMOS 1975
OBJECT_ID      = 1988-093A
CENTER_NAME    = EARTH
REF_FRAME      = TEME
TIME_SYSTEM    = UTC
MEAN_ELEMENT_THEORY = SGP/SGP4

EPOCH          = 2026-03-02T04:39:05.033664
MEAN_MOTION    = 15.27931623
ECCENTRICITY   = .0011432
INCLINATION    = 82.5202
RA_OF_ASC_NODE = 125.2090
ARG_OF_PERICENTER = 189.2726
MEAN_ANOMALY   = 170.8304

EPHEMERIS_TYPE = 0
CLASSIFICATION_TYPE = U
NORAD_CAT_ID   = 19573
ELEMENT_SET_NO = 999
REV_AT_EPOCH   = 1826
BSTAR          = .32908E-3
MEAN_MOTION_DOT = .9018E-4
MEAN_MOTION_DDOT = 0

CCSDS_OMM_VERS = 2.0
CREATION_DATE  = 
ORIGINATOR     = 

OBJECT_NAME    = SL-14 R/B
OBJECT_ID      = 1988-093B
CENTER_NAME    = EARTH
REF_FRAME      = TEME
TIME_SYSTEM    = UTC
MEAN_ELEMENT_THEORY = SGP/SGP4

EPOCH          = 2026-03-02T01:15:36.855360
MEAN_MOTION    = 14.85645104
ECCENTRICITY   = .0022188
INCLINATION    = 82.5290
RA_OF_ASC_NODE = 49.2139
ARG_OF_PERICENTER = 65.3455
MEAN_ANOMALY   = 1.4555

EPHEMERIS_TYPE = 0
CLASSIFICATION_TYPE = U
NORAD_CAT_ID   = 19574
ELEMENT_SET_NO = 999
REV_AT_EPOCH   = 99990
BSTAR          = .7278E-4
MEAN_MOTION_DOT = .658E-5
MEAN_MOTION_DDOT = 0

CCSDS_OMM_VERS = 2.0
CREATION_DATE  = 
ORIGINATOR     = 

OBJECT_NAME    = SL-16 R/B
OBJECT_ID      = 1988-102B
CENTER_NAME    = EARTH
REF_FRAME      = TEME
TIME_SYSTEM    = UTC
MEAN_ELEMENT_THEORY = SGP/SGP4

EPOCH          = 2026-03-01T23:51:04.790016
MEAN_MOTION    = 14.16149455
ECCENTRICITY   = .0013481
INCLINATION    = 71.0000
RA_OF_ASC_NODE = 167.6886
ARG_OF_PERICENTER = 13.3063
MEAN_ANOMALY   = 346.8413

EPHEMERIS_TYPE = 0
CLASSIFICATION_TYPE = U
NORAD_CAT_ID   = 19650
ELEMENT_SET_NO = 999
REV_AT_EPOCH   = 92580
BSTAR          = -.45017E-4
MEAN_MOTION_DOT = -.137E-5
MEAN_MOTION_DDOT = 0

CCSDS_OMM_VERS = 2.0
CREATION_DATE  = 
ORIGINATOR     = 

OBJECT_NAME    = INTERCOSMOS 24
OBJECT_ID      = 1989-080A
CENTER_NAME    = EARTH
REF_FRAME      = TEME
TIME_SYSTEM    = UTC
MEAN_ELEMENT_THEORY = SGP/SGP4

EPOCH          = 2026-03-02T04:15:26.322336
MEAN_MOTION    = 12.59544119
ECCENTRICITY   = .1186867
INCLINATION    = 82.6034
RA_OF_ASC_NODE = 109.2962
ARG_OF_PERICENTER = 310.2741
MEAN_ANOMALY   = 40.0280

EPHEMERIS_TYPE = 0
CLASSIFICATION_TYPE = U
NORAD_CAT_ID   = 20261
ELEMENT_SET_NO = 999
REV_AT_EPOCH   = 66585
BSTAR          = .21511E-3
MEAN_MOTION_DOT = .725E-5
MEAN_MOTION_DDOT = 0

CCSDS_OMM_VERS = 2.0
CREATION_DATE  = 
ORIGINATOR     = 

OBJECT_NAME    = SL-14 R/B
OBJECT_ID      = 1989-080C
CENTER_NAME    = EARTH
REF_FRAME      = TEME
TIME_SYSTEM    = UTC
MEAN_ELEMENT_THEORY = SGP/SGP4

EPOCH          = 2026-03-01T19:03:12.294720
MEAN_MOTION    = 12.50481556
ECCENTRICITY   = .12302628
INCLINATION    = 82.5971
RA_OF_ASC_NODE = 178.2535
ARG_OF_PERICENTER = 202.7932
MEAN_ANOMALY   = 151.3742

EPHEMERIS_TYPE = 0
CLASSIFICATION_TYPE = U
NORAD_CAT_ID   = 20262
ELEMENT_SET_NO = 999
REV_AT_EPOCH   = 65916
BSTAR          = .2078853E-3
MEAN_MOTION_DOT = .698E-5
MEAN_MOTION_DDOT = 0

CCSDS_OMM_VERS = 2.0
CREATION_DATE  = 
ORIGINATOR     = 

OBJECT_NAME    = DELTA 1 R/B
OBJECT_ID      = 1989-089B
CENTER_NAME    = EARTH
REF_FRAME      = TEME
TIME_SYSTEM    = UTC
MEAN_ELEMENT_THEORY = SGP/SGP4

EPOCH          = 2026-03-02T04:06:48.508992
MEAN_MOTION    = 14.50655757
ECCENTRICITY   = .0069993
INCLINATION    = 97.0711
RA_OF_ASC_NODE = 269.8058
ARG_OF_PERICENTER = 145.3838
MEAN_ANOMALY   = 215.1946

EPHEMERIS_TYPE = 0
CLASSIFICATION_TYPE = U
NORAD_CAT_ID   = 20323
ELEMENT_SET_NO = 999
REV_AT_EPOCH   = 89464
BSTAR          = .11046E-3
MEAN_MOTION_DOT = .413E-5
MEAN_MOTION_DDOT = 0

CCSDS_OMM_VERS = 2.0
CREATION_DATE  = 
ORIGINATOR     = 

OBJECT_NAME    = ARIANE 40 R/B
OBJECT_ID      = 1990-005H
CENTER_NAME    = EARTH
REF_FRAME      = TEME
TIME_SYSTEM    = UTC
MEAN_ELEMENT_THEORY = SGP/SGP4

EPOCH          = 2026-03-02T04:04:04.306656
MEAN_MOTION    = 14.39864452
ECCENTRICITY   = .0009401
INCLINATION    = 98.3100
RA_OF_ASC_NODE = 122.0545
ARG_OF_PERICENTER = 222.0738
MEAN_ANOMALY   = 137.9730

EPHEMERIS_TYPE = 0
CLASSIFICATION_TYPE = U
NORAD_CAT_ID   = 20443
ELEMENT_SET_NO = 999
REV_AT_EPOCH   = 89172
BSTAR          = .10829E-3
MEAN_MOTION_DOT = .298E-5
MEAN_MOTION_DDOT = 0

