COSMOS 1933             
1 18958U 88020A   26061.01147904  .00004948  00000+0  24263-3 0  9994
2 18958  82.5094 258.5109 0003259 211.2749 148.8291 15.17900820 49061
SL-3 R/B                
1 19046U 88032B   26061.09537708  .00006959  00000+0  32576-3 0  9999
2 19046  97.5174  44.3737 0024100 260.0326  99.8188 15.19798672 50956
SL-16 R/B               
1 19120U 88039B   26061.15895175  .00000147  00000+0  92317-4 0  9994
2 19120  71.0128  84.4730 0022333 345.4989  14.5493 14.19615192957315
COSMOS 1953             
1 19210U 88050A   26061.22773740  .00010594  00000+0  38162-3 0  9992
2 19210  82.5115 165.7490 0012167 146.7184 213.4823 15.28360478 36643
SL-8 R/B                
1 19257U 88053B   26061.13994947  .00000272  00000+0  96531-4 0  9997
2 19257  74.0470 126.3827 0021232 306.8254  73.6207 14.38910307975513
COSMOS 1975             
1 19573U 88093A   26061.19380826  .00009018  00000+0  32908-3 0  9997
2 19573  82.5202 125.2090 0011432 189.2726 170.8304 15.27931623 18260
SL-14 R/B               
1 19574U 88093B   26061.05250990  .00000658  00000+0  72780-4 0  9995
2 19574  82.5290  49.2139 0022188  65.3455   1.4555 14.85645104999905
SL-16 R/B               
1 19650U 88102B   26060.99380544 -.00000137  00000+0 -45017-4 0  9999
2 19650  71.0000 167.6886 0013481  13.3063 346.8413 14.16149455925809
INTERCOSMOS 24          
1 20261U 89080A   26061.17738799  .00000725  00000+0  21511-3 0  9998
2 20261  82.6034 109.2962 1186867 310.2741  40.0280 12.59544119665855
SL-14 R/B               
1 20262U 89080C   26060.79389230  .00000698  00000+0  20789-3 0  9993
2 20262  82.5971 178.2535 1230262 202.7932 151.3742 12.50481556659165
DELTA 1 R/B             
1 20323U 89089B   26061.17139478  .00000413  00000+0  11046-3 0  9991
2 20323  97.0711 269.8058 0069993 145.3838 215.1946 14.50655757894647
ARIANE 40 R/B           
1 20443U 90005H   26061.16949429  .00000298  00000+0  10829-3 0  9997
2 20443  98.3100 122.0545 0009401 222.0738 137.9730 14.39864452891726
